{
    "links": {
        "self": "http://www.neowsapp.com/rest/v1/neo/3387608?api_key=iIulBulltgU6a56xZRHN4H3l9WmuAYTsLGpBGhQ2"
    },
    "id": "3387608",
    "neo_reference_id": "3387608",
    "name": "(2007 TE15)",
    "designation": "2007 TE15",
    "nasa_jpl_url": "http://ssd.jpl.nasa.gov/sbdb.cgi?sstr=3387608",
    "absolute_magnitude_h": 25.5,
    "estimated_diameter": {
        "kilometers": {
            "estimated_diameter_min": 0.0211132445,
            "estimated_diameter_max": 0.0472106499
        },
        "meters": {
            "estimated_diameter_min": 21.113244479,
            "estimated_diameter_max": 47.2106498806
        },
        "miles": {
            "estimated_diameter_min": 0.0131191578,
            "estimated_diameter_max": 0.0293353287
        },
        "feet": {
            "estimated_diameter_min": 69.2691770164,
            "estimated_diameter_max": 154.8905885541
        }
    },
    "is_potentially_hazardous_asteroid": false,
    "close_approach_data": [
        {
            "close_approach_date": "2007-10-02",
            "close_approach_date_full": "2007-Oct-02 18:35",
            "epoch_date_close_approach": 1191350100000,
            "relative_velocity": {
                "kilometers_per_second": "13.1154545729",
                "kilometers_per_hour": "47215.6364625804",
                "miles_per_hour": "29337.9603342072"
            },
            "miss_distance": {
                "astronomical": "0.0405589543",
                "lunar": "15.7774332227",
                "kilometers": "6067533.172707341",
                "miles": "3770190.2874736658"
            },
            "orbiting_body": "Earth"
        }
    ],
    "orbital_data": {
        "orbit_id": "8",
        "orbit_determination_date": "2017-04-06 09:05:51",
        "first_observation_date": "2007-10-08",
        "last_observation_date": "2007-10-11",
        "data_arc_in_days": 3,
        "observations_used": 19,
        "orbit_uncertainty": "9",
        "minimum_orbit_intersection": ".0323599",
        "jupiter_tisserand_invariant": "3.872",
        "epoch_osculation": "2454382.5",
        "eccentricity": ".4885207826900532",
        "semi_major_axis": "1.813565750420212",
        "inclination": "13.30709878917249",
        "ascending_node_longitude": "192.9760204685979",
        "orbital_period": "892.0688715005158",
        "perihelion_distance": ".9276011905650561",
        "perihelion_argument": "129.7662297042931",
        "aphelion_distance": "2.699530310275367",
        "perihelion_time": "2454340.570429908980",
        "mean_anomaly": "16.92094154947595",
        "mean_motion": ".4035562852837331",
        "equinox": "J2000",
        "orbit_class": {
            "orbit_class_type": "APO",
            "orbit_class_description": "Near-Earth asteroid orbits which cross the Earth’s orbit similar to that of 1862 Apollo",
            "orbit_class_range": "a (semi-major axis) > 1.0 AU; q (perihelion) < 1.017 AU"
        }
    },
    "is_sentry_object": false
}